{
  "type": "FeatureCollection",
  "features": [
    {
      "type": "Feature",
      "properties": {
        "norad_id": 66362,
        "name": "STARLINK-35822",
        "group": "last-30-days",
        "lat": -19.95152299336204,
        "lon": -48.88923122167456,
        "alt_km": 366.77967287680167,
        "timestamp": "2025-12-02T06:27:51.800018+00:00",
        "meta_object_name": "STARLINK-35822",
        "meta_object_id": "2025-254Q",
        "meta_epoch": "2025-12-01T20:00:01.999008",
        "meta_mean_motion": 15.70320088,
        "meta_eccentricity": 9.3e-05,
        "meta_inclination": 53.1591,
        "meta_ra_of_asc_node": 329.053,
        "meta_arg_of_pericenter": 94.94,
        "meta_mean_anomaly": 295.2443,
        "meta_ephemeris_type": 0,
        "meta_classification_type": "U",
        "meta_norad_cat_id": 66362,
        "meta_element_set_no": 999,
        "meta_rev_at_epoch": 517,
        "meta_bstar": -0.017903,
        "meta_mean_motion_dot": -0.01966719,
        "meta_mean_motion_ddot": 0,
        "tle_line1": "1 66362U 25254Q   25335.83335647 -.01966719  00000+0 -17903-1 0  9999",
        "tle_line2": "2 66362  53.1591 329.0530 0000930  94.9400 295.2443 15.70320088  5175"
      },
      "geometry": {
        "type": "Point",
        "coordinates": [
          -48.88923122167456,
          -19.95152299336204
        ]
      }
    },
    {
      "type": "Feature",
      "properties": {
        "norad_id": 66363,
        "name": "STARLINK-35806",
        "group": "last-30-days",
        "lat": -21.421820457192542,
        "lon": -50.19889524991533,
        "alt_km": 366.95344287429725,
        "timestamp": "2025-12-02T06:27:51.800030+00:00",
        "meta_object_name": "STARLINK-35806",
        "meta_object_id": "2025-254R",
        "meta_epoch": "2025-12-01T20:00:01.999008",
        "meta_mean_motion": 15.70314025,
        "meta_eccentricity": 9.79e-05,
        "meta_inclination": 53.1589,
        "meta_ra_of_asc_node": 329.0569,
        "meta_arg_of_pericenter": 96.3701,
        "meta_mean_anomaly": 291.8994,
        "meta_ephemeris_type": 0,
        "meta_classification_type": "U",
        "meta_norad_cat_id": 66363,
        "meta_element_set_no": 999,
        "meta_rev_at_epoch": 514,
        "meta_bstar": -0.017821,
        "meta_mean_motion_dot": -0.01958419,
        "meta_mean_motion_ddot": 0,
        "tle_line1": "1 66363U 25254R   25335.83335647 -.01958419  00000+0 -17821-1 0  9997",
        "tle_line2": "2 66363  53.1589 329.0569 0000979  96.3701 291.8994 15.70314025  5142"
      },
      "geometry": {
        "type": "Point",
        "coordinates": [
          -50.19889524991533,
          -21.421820457192542
        ]
      }
    },
    {
      "type": "Feature",
      "properties": {
        "norad_id": 66364,
        "name": "STARLINK-35797",
        "group": "last-30-days",
        "lat": -18.471415841202976,
        "lon": -47.60423909197124,
        "alt_km": 366.5749506236298,
        "timestamp": "2025-12-02T06:27:51.800040+00:00",
        "meta_object_name": "STARLINK-35797",
        "meta_object_id": "2025-254S",
        "meta_epoch": "2025-12-01T20:00:01.999008",
        "meta_mean_motion": 15.70319053,
        "meta_eccentricity": 8.03e-05,
        "meta_inclination": 53.1591,
        "meta_ra_of_asc_node": 329.0486,
        "meta_arg_of_pericenter": 93.9928,
        "meta_mean_anomaly": 298.1091,
        "meta_ephemeris_type": 0,
        "meta_classification_type": "U",
        "meta_norad_cat_id": 66364,
        "meta_element_set_no": 999,
        "meta_rev_at_epoch": 517,
        "meta_bstar": -0.017896,
        "meta_mean_motion_dot": -0.01965864,
        "meta_mean_motion_ddot": 0,
        "tle_line1": "1 66364U 25254S   25335.83335647 -.01965864  00000+0 -17896-1 0  9992",
        "tle_line2": "2 66364  53.1591 329.0486 0000803  93.9928 298.1091 15.70319053  5171"
      },
      "geometry": {
        "type": "Point",
        "coordinates": [
          -47.60423909197124,
          -18.471415841202976
        ]
      }
    },
    {
      "type": "Feature",
      "properties": {
        "norad_id": 66365,
        "name": "STARLINK-35827",
        "group": "last-30-days",
        "lat": -15.488177068559208,
        "lon": -45.09872891738401,
        "alt_km": 366.35199388405,
        "timestamp": "2025-12-02T06:27:51.800050+00:00",
        "meta_object_name": "STARLINK-35827",
        "meta_object_id": "2025-254T",
        "meta_epoch": "2025-12-01T20:00:01.999008",
        "meta_mean_motion": 15.70321879,
        "meta_eccentricity": 9.15e-05,
        "meta_inclination": 53.1587,
        "meta_ra_of_asc_node": 329.0413,
        "meta_arg_of_pericenter": 99.4447,
        "meta_mean_anomaly": 296.4884,
        "meta_ephemeris_type": 0,
        "meta_classification_type": "U",
        "meta_norad_cat_id": 66365,
        "meta_element_set_no": 999,
        "meta_rev_at_epoch": 514,
        "meta_bstar": -0.017918,
        "meta_mean_motion_dot": -0.01968322,
        "meta_mean_motion_ddot": 0,
        "tle_line1": "1 66365U 25254T   25335.83335647 -.01968322  00000+0 -17918-1 0  9990",
        "tle_line2": "2 66365  53.1587 329.0413 0000915  99.4447 296.4884 15.70321879  5145"
      },
      "geometry": {
        "type": "Point",
        "coordinates": [
          -45.09872891738401,
          -15.488177068559208
        ]
      }
    },
    {
      "type": "Feature",
      "properties": {
        "norad_id": 66366,
        "name": "STARLINK-35845",
        "group": "last-30-days",
        "lat": -16.984603311710213,
        "lon": -46.34275704257163,
        "alt_km": 366.5645648939735,
        "timestamp": "2025-12-02T06:27:51.800063+00:00",
        "meta_object_name": "STARLINK-35845",
        "meta_object_id": "2025-254U",
        "meta_epoch": "2025-12-01T20:00:01.999008",
        "meta_mean_motion": 15.70318808,
        "meta_eccentricity": 9.57e-05,
        "meta_inclination": 53.1589,
        "meta_ra_of_asc_node": 329.0445,
        "meta_arg_of_pericenter": 102.4972,
        "meta_mean_anomaly": 291.5204,
        "meta_ephemeris_type": 0,
        "meta_classification_type": "U",
        "meta_norad_cat_id": 66366,
        "meta_element_set_no": 999,
        "meta_rev_at_epoch": 517,
        "meta_bstar": -0.017885,
        "meta_mean_motion_dot": -0.01964885,
        "meta_mean_motion_ddot": 0,
        "tle_line1": "1 66366U 25254U   25335.83335647 -.01964885  00000+0 -17885-1 0  9994",
        "tle_line2": "2 66366  53.1589 329.0445 0000957 102.4972 291.5204 15.70318808  5170"
      },
      "geometry": {
        "type": "Point",
        "coordinates": [
          -46.34275704257163,
          -16.984603311710213
        ]
      }
    },
    {
      "type": "Feature",
      "properties": {
        "norad_id": 66367,
        "name": "STARLINK-35846",
        "group": "last-30-days",
        "lat": -13.988439668405961,
        "lon": -43.87713729017783,
        "alt_km": 366.13938672675886,
        "timestamp": "2025-12-02T06:27:51.800073+00:00",
        "meta_object_name": "STARLINK-35846",
        "meta_object_id": "2025-254V",
        "meta_epoch": "2025-12-01T20:00:01.999008",
        "meta_mean_motion": 15.70316934,
        "meta_eccentricity": 0.0001067,
        "meta_inclination": 53.1585,
        "meta_ra_of_asc_node": 329.0365,
        "meta_arg_of_pericenter": 81.3998,
        "meta_mean_anomaly": 316.4522,
        "meta_ephemeris_type": 0,
        "meta_classification_type": "U",
        "meta_norad_cat_id": 66367,
        "meta_element_set_no": 999,
        "meta_rev_at_epoch": 512,
        "meta_bstar": -0.017877,
        "meta_mean_motion_dot": -0.01964135,
        "meta_mean_motion_ddot": 0,
        "tle_line1": "1 66367U 25254V   25335.83335647 -.01964135  00000+0 -17877-1 0  9994",
        "tle_line2": "2 66367  53.1585 329.0365 0001067  81.3998 316.4522 15.70316934  5127"
      },
      "geometry": {
        "type": "Point",
        "coordinates": [
          -43.87713729017783,
          -13.988439668405961
        ]
      }
    },
    {
      "type": "Feature",
      "properties": {
        "norad_id": 66368,
        "name": "STARLINK-34861",
        "group": "last-30-days",
        "lat": 0.6682821103779863,
        "lon": -32.64981055426317,
        "alt_km": 346.40163729089545,
        "timestamp": "2025-12-02T06:27:51.800083+00:00",
        "meta_object_name": "STARLINK-34861",
        "meta_object_id": "2025-254W",
        "meta_epoch": "2025-12-01T13:42:12.226176",
        "meta_mean_motion": 15.74310652,
        "meta_eccentricity": 0.00014046,
        "meta_inclination": 53.1573,
        "meta_ra_of_asc_node": 330.3176,
        "meta_arg_of_pericenter": 93.2366,
        "meta_mean_anomaly": 266.8814,
        "meta_ephemeris_type": 0,
        "meta_classification_type": "U",
        "meta_norad_cat_id": 66368,
        "meta_element_set_no": 999,
        "meta_rev_at_epoch": 392,
        "meta_bstar": 0.0018549157,
        "meta_mean_motion_dot": 0.00281787,
        "meta_mean_motion_ddot": 0,
        "tle_line1": "1 66368U 25254W   25335.57097484  .00281787  00000+0  18549-2 0  9990",
        "tle_line2": "2 66368  53.1573 330.3176 0001404  93.2366 266.8814 15.74310652  3929"
      },
      "geometry": {
        "type": "Point",
        "coordinates": [
          -32.64981055426317,
          0.6682821103779863
        ]
      }
    }
  ]
}